      2.10          N: GNSS NAV DATA                        RINEX VERSION / TYPE
fic2rin                                 02/19/2022 00:17:33 PGM / RUN BY / DATE
                                                            END OF HEADER
23 22  2 18  2 14 40.0 3.506429493427e-07-3.524291969370e-12 0.000000000000e+00
    4.000000000000e+01-5.862500000000e+01 4.733054293567e-09 1.555391661906e+00
   -2.946704626083e-06 1.975201768801e-03 2.482905983925e-06 5.153702379227e+03
    4.400800000000e+05 7.636845111847e-08-9.050089042021e-01-1.303851604462e-08
    9.673406543982e-01 3.343125000000e+02 2.966123041125e+00-8.469281350992e-09
   -3.596578383355e-10 1.000000000000e+00 2.197000000000e+03 0.000000000000e+00
    2.400000000000e+00 0.000000000000e+00-8.381903171539e-09 8.080000000000e+02
    4.329000000000e+05 4.000000000000e+00
 2 22  2 18  4  0  0.0-6.510550156236e-04-6.821210263297e-13 0.000000000000e+00
    5.800000000000e+01 1.288750000000e+02 4.481972406427e-09-2.944129325912e+00
    6.718561053276e-06 2.066439238843e-02 7.135793566704e-06 5.153698507309e+03
    4.464000000000e+05 3.483146429062e-07-2.002279610891e+00 1.918524503708e-07
    9.650979439289e-01 2.400625000000e+02-1.440960484965e+00-7.886757086518e-09
    4.978778814693e-10 1.000000000000e+00 2.197000000000e+03 0.000000000000e+00
    2.400000000000e+00 0.000000000000e+00-1.769512891769e-08 5.800000000000e+01
    4.392000000000e+05 4.000000000000e+00
 1 22  2 18  4  0  0.0 4.287394694984e-04-9.436007530894e-12 0.000000000000e+00
    6.100000000000e+01 1.135000000000e+02 4.084813006001e-09-3.087260345723e+00
    5.679205060005e-06 1.139103830792e-02 6.161630153656e-06 5.153667943954e+03
    4.464000000000e+05 4.097819328308e-08-1.912941164101e+00-1.564621925354e-07
    9.867388281700e-01 2.737187500000e+02 8.815182405102e-01-7.817111328350e-09
    4.343038047824e-10 1.000000000000e+00 2.197000000000e+03 0.000000000000e+00
    2.400000000000e+00 0.000000000000e+00 5.122274160385e-09 6.100000000000e+01
    4.392000000000e+05 4.000000000000e+00
 3 22  2 18  4  0  0.0-1.264265738428e-04-1.739408617141e-11 0.000000000000e+00
    3.200000000000e+01-6.471875000000e+01 4.598048670040e-09 2.043494444363e+00
   -3.492459654808e-06 3.896314417943e-03 2.851709723473e-06 5.153676012039e+03
    4.464000000000e+05-1.043081283569e-07-8.773992805504e-01-1.024454832077e-07
    9.724771806751e-01 3.293750000000e+02 9.560042491171e-01-8.328918361453e-09
   -3.225134339791e-10 1.000000000000e+00 2.197000000000e+03 0.000000000000e+00
    2.400000000000e+00 0.000000000000e+00 1.862645149231e-09 3.200000000000e+01
    4.392000000000e+05 4.000000000000e+00
 8 22  2 18  4  0  0.0-5.661463364959e-05-1.477928890381e-12 0.000000000000e+00
    3.000000000000e+00 1.400000000000e+01 4.244819670920e-09-8.284642275347e-01
    6.221234798431e-07 7.309623761103e-03 1.193583011627e-05 5.153721881866e+03
    4.464000000000e+05 1.285225152969e-07-2.992459409637e+00-6.705522537231e-08
    9.650491907210e-01 1.487187500000e+02 1.082391991571e-01-7.830683322249e-09
   -2.085801167705e-10 1.000000000000e+00 2.197000000000e+03 0.000000000000e+00
    2.400000000000e+00 0.000000000000e+00 5.122274160385e-09 3.000000000000e+00
    4.392000000000e+05 4.000000000000e+00
 7 22  2 18  4  0  0.0 3.110556863248e-04 2.614797267597e-12 0.000000000000e+00
    1.300000000000e+01 5.843750000000e+01 4.773770275265e-09 2.525303248537e+00
    2.864748239517e-06 1.554368238430e-02 8.227303624153e-06 5.153689449310e+03
    4.464000000000e+05 2.607703208923e-08 1.222364588803e+00-2.309679985046e-07
    9.507556384457e-01 2.141250000000e+02-2.290499592273e+00-7.997833141853e-09
    6.507413917053e-10 1.000000000000e+00 2.197000000000e+03 0.000000000000e+00
    2.400000000000e+00 0.000000000000e+00-1.117587089539e-08 1.300000000000e+01
    4.392000000000e+05 4.000000000000e+00
 5 22  2 18  4  0  0.0-7.181847468019e-05-1.364242052659e-12 0.000000000000e+00
    7.600000000000e+01-5.546875000000e+01 5.025566477873e-09-4.332012575541e-01
   -2.820044755936e-06 5.874395603314e-03 2.108514308929e-06 5.153665346146e+03
    4.464000000000e+05-6.146728992462e-08-9.178419039366e-01 8.195638656616e-08
    9.594480197183e-01 3.354375000000e+02 1.008301250263e+00-8.719291764929e-09
   -3.250135381184e-10 1.000000000000e+00 2.197000000000e+03 0.000000000000e+00
    2.400000000000e+00 0.000000000000e+00-1.117587089539e-08 7.600000000000e+01
    4.392000000000e+05 4.000000000000e+00
 4 22  2 18  4  0  0.0-1.888931728899e-04 2.273736754432e-12 0.000000000000e+00
    1.290000000000e+02-6.578125000000e+01 4.096242053495e-09-1.310893054426e+00
   -3.544613718987e-06 1.700446475297e-03 1.229904592037e-05 5.153659746170e+03
    4.464000000000e+05-3.911554813385e-08 2.036818369432e-01-7.078051567078e-08
    9.616299708110e-01 1.426875000000e+02-3.055801546149e+00-7.757465986739e-09
   -1.114332130692e-10 1.000000000000e+00 2.197000000000e+03 0.000000000000e+00
    2.400000000000e+00 0.000000000000e+00-4.190951585770e-09 6.410000000000e+02
    4.392000000000e+05 4.000000000000e+00
16 22  2 18  4  0  0.0-4.708371125162e-04-4.774847184308e-12 0.000000000000e+00
    8.000000000000e+00-3.775000000000e+01 4.652693803372e-09 2.002653365980e-02
   -1.838430762291e-06 1.276450336445e-02 5.589798092842e-06 5.153598875046e+03
    4.464000000000e+05 2.607703208923e-08 2.354145597351e+00 1.583248376846e-07
    9.700551632627e-01 2.773750000000e+02 7.088749535900e-01-8.368562869948e-09
   -3.321566928024e-10 1.000000000000e+00 2.197000000000e+03 0.000000000000e+00
    2.400000000000e+00 0.000000000000e+00-1.024454832077e-08 8.000000000000e+00
    4.392000000000e+05 4.000000000000e+00
10 22  2 18  4  0  0.0-3.235237672925e-04-1.057287590811e-11 0.000000000000e+00
    3.500000000000e+01-5.809375000000e+01 4.693766942805e-09 1.160519250091e+00
   -2.868473529816e-06 7.506065070629e-03 2.807006239891e-06 5.153678443909e+03
    4.464000000000e+05 0.000000000000e+00-8.801870596669e-01 9.685754776001e-08
    9.723009970621e-01 3.341875000000e+02-2.511897936232e+00-8.494639550120e-09
   -3.793015137162e-10 1.000000000000e+00 2.197000000000e+03 0.000000000000e+00
    2.400000000000e+00 0.000000000000e+00 2.328306436539e-09 3.500000000000e+01
    4.392000000000e+05 4.000000000000e+00
21 22  2 18  4  0  0.0 1.582140102983e-04 5.684341886081e-13 0.000000000000e+00
    1.100000000000e+01 9.821875000000e+01 4.852702134522e-09-7.279993159108e-01
    5.016103386879e-06 2.460220607463e-02 6.930902600288e-06 5.153574783325e+03
    4.464000000000e+05-3.501772880554e-07-2.003928541930e+00-9.685754776001e-08
    9.593500890562e-01 2.544687500000e+02-1.002825123646e+00-8.614287391075e-09
    6.307405585903e-10 1.000000000000e+00 2.197000000000e+03 0.000000000000e+00
    2.400000000000e+00 0.000000000000e+00-1.024454832077e-08 1.100000000000e+01
    4.392000000000e+05 4.000000000000e+00
26 22  2 18  4  0  0.0 1.841564662755e-04 3.183231456205e-12 0.000000000000e+00
    6.000000000000e+00-2.828125000000e+01 5.431297663920e-09 9.655908668611e-01
   -1.417472958565e-06 6.883870344609e-03 4.347413778305e-06 5.153696182251e+03
    4.464000000000e+05-7.450580596924e-09 2.211695675625e+00 7.264316082001e-08
    9.382950493779e-01 2.831562500000e+02 3.701997571287e-01-8.672146944015e-09
   -2.860833450911e-10 1.000000000000e+00 2.197000000000e+03 0.000000000000e+00
    2.400000000000e+00 0.000000000000e+00 6.984919309616e-09 6.000000000000e+00
    4.392000000000e+05 4.000000000000e+00
19 22  2 18  4  0  0.0 1.203804276884e-04 5.002220859751e-12 0.000000000000e+00
    2.800000000000e+01 2.578125000000e+01 3.899448141953e-09 1.496282010723e+00
    1.288950443268e-06 8.980144630186e-03 1.328624784946e-05 5.153690483093e+03
    4.464000000000e+05 1.695007085800e-07-2.865727326989e+00-1.341104507446e-07
    9.789278682065e-01 1.312500000000e+02 2.008562724082e+00-7.562100706134e-09
   -1.996511734156e-10 1.000000000000e+00 2.197000000000e+03 0.000000000000e+00
    2.400000000000e+00 0.000000000000e+00-1.583248376846e-08 2.800000000000e+01
    4.392000000000e+05 4.000000000000e+00
13 22  2 18  4  0  0.0 2.635144628584e-04 6.252776074689e-12 0.000000000000e+00
    1.500000000000e+01-6.340625000000e+01 3.918020344131e-09-1.391165378022e+00
   -3.311783075333e-06 5.807910230942e-03 1.299753785133e-05 5.153684835434e+03
    4.464000000000e+05 1.881271600723e-07 3.035420396758e-01 3.911554813385e-08
    9.690596460468e-01 1.332187500000e+02 9.564624175046e-01-7.697820645128e-09
   -6.250260348431e-11 1.000000000000e+00 2.197000000000e+03 0.000000000000e+00
    2.400000000000e+00 0.000000000000e+00-1.117587089539e-08 1.500000000000e+01
    4.392000000000e+05 4.000000000000e+00
12 22  2 18  4  0  0.0-1.726783812046e-04-5.684341886081e-12 0.000000000000e+00
    1.060000000000e+02-3.978125000000e+01 4.617335187687e-09 1.874563623671e+00
   -2.183020114899e-06 8.689356269315e-03 5.409121513367e-06 5.153592641830e+03
    4.464000000000e+05-1.676380634308e-08 2.335525194216e+00-1.862645149231e-07
    9.700972967663e-01 2.800937500000e+02 1.247400034007e+00-8.162125699583e-09
   -2.950122884460e-10 1.000000000000e+00 2.197000000000e+03 0.000000000000e+00
    3.400000000000e+00 0.000000000000e+00-1.257285475731e-08 1.060000000000e+02
    4.392000000000e+05 4.000000000000e+00
27 22  2 18  4  0  0.0 1.236861571670e-04 1.580247044330e-11 0.000000000000e+00
    2.400000000000e+01 1.121875000000e+01 4.047311443910e-09-8.674040288252e-01
    6.668269634247e-07 1.025545503944e-02 1.177936792374e-05 5.153653507233e+03
    4.464000000000e+05 2.030283212662e-07-2.973022862061e+00 1.620501279831e-07
    9.737547953101e-01 1.590625000000e+02 6.398594788642e-01-7.778895450791e-09
   -2.360812623036e-10 1.000000000000e+00 2.197000000000e+03 0.000000000000e+00
    2.400000000000e+00 0.000000000000e+00 1.396983861923e-09 2.400000000000e+01
    4.392000000000e+05 4.000000000000e+00
